NORAD_CAT_ID,OBJECT_NAME,OBJECT_TYPE,EPOCH,MEAN_MOTION,ECCENTRICITY,INCLINATION,RA_OF_ASC_NODE,ARG_OF_PERICENTER,MEAN_ANOMALY,BSTAR,MEAN_MOTION_DOT,MEAN_MOTION_DDOT,TLE_LINE0,TLE_LINE1,TLE_LINE2,SEMIMAJOR_AXIS,PERIOD,APOGEE,PERIGEE,DECAYED
51814.0,STARLINK-3599,PAYLOAD,2024-02-12 11:58:06,15.0886687,0.0001679,53.2171,123.792,123.0365,237.0789,0.00027803,4.143e-05,0.0,0 STARLINK-3599,1 51814U 22017AY  24043.49868159  .00004143  00000-0  27803-3 0  9999,2 51814  53.2171 123.7920 0001679 123.0365 237.0789 15.08866870110048,6917.798,95.436,540.825,538.502,0.0
51814.0,STARLINK-3599,PAYLOAD,2024-02-12 15:08:52,15.08870644,0.0001634,53.2175,123.1969,112.5974,247.5192,0.00029146,4.357e-05,0.0,0 STARLINK-3599,1 51814U 22017AY  24043.63115764  .00004357  00000-0  29146-3 0  9991,2 51814  53.2175 123.1969 0001634 112.5974 247.5192 15.08870644109944,6917.787,95.436,540.782,538.521,0.0
51814.0,STARLINK-3599,PAYLOAD,2024-02-13 11:48:57,15.08811283,0.0001176,53.2178,119.3332,100.9877,259.1247,-7.075e-06,-4e-06,0.0,0 STARLINK-3599,1 51814U 22017AY  24044.49232879 -.00000400  00000-0 -70750-5 0  9999,2 51814  53.2178 119.3332 0001176 100.9877 259.1247 15.08811283110195,6917.968,95.439,540.647,539.02,0.0
51814.0,STARLINK-3599,PAYLOAD,2024-02-13 21:21:15,15.08828309,0.0001079,53.2182,117.5488,109.3654,250.7455,5.5285e-05,5.92e-06,0.0,0 STARLINK-3599,1 51814U 22017AY  24044.88976090  .00000592  00000-0  55285-4 0  9997,2 51814  53.2182 117.5488 0001079 109.3654 250.7455 15.08828309110139,6917.916,95.438,540.528,539.035,0.0
51814.0,STARLINK-3599,PAYLOAD,2024-02-14 05:18:09,15.08855328,8.81e-05,53.2159,116.056,88.7472,271.3621,-0.00016271,-2.877e-05,0.0,0 STARLINK-3599,1 51814U 22017AY  24045.22094716 -.00002877  00000-0 -16271-3 0  9993,2 51814  53.2159 116.0560 0000881  88.7472 271.3621 15.08855328110300,6917.834,95.437,540.308,539.089,0.0
51814.0,STARLINK-3599,PAYLOAD,2024-02-14 11:39:41,15.08867614,0.0001531,53.2186,114.8781,105.4966,254.6195,3.5118e-05,2.71e-06,0.0,0 STARLINK-3599,1 51814U 22017AY  24045.48589239  .00000271  00000-0  35118-4 0  9996,2 51814  53.2186 114.8781 0001531 105.4966 254.6195 15.08867614110344,6917.796,95.436,540.72,538.602,0.0
51814.0,STARLINK-3599,PAYLOAD,2024-02-14 21:11:59,15.08864105,0.0001232,53.2174,113.0877,79.5826,280.5305,-8.5397e-05,-1.648e-05,0.0,0 STARLINK-3599,1 51814U 22017AY  24045.88333116 -.00001648  00000-0 -85397-4 0  9996,2 51814  53.2174 113.0877 0001232  79.5826 280.5305 15.08864105110288,6917.807,95.436,540.524,538.819,0.0
51814.0,STARLINK-3599,PAYLOAD,2024-02-15 09:55:07,15.08814296,0.0001245,53.2172,110.7097,80.1519,279.9614,9.1274e-05,1.164e-05,0.0,0 STARLINK-3599,1 51814U 22017AY  24046.41328508  .00001164  00000-0  91274-4 0  9997,2 51814  53.2172 110.7097 0001245  80.1519 279.9614 15.08814296110488,6917.959,95.439,540.685,538.963,0.0
51814.0,STARLINK-3599,PAYLOAD,2024-02-15 21:02:49,15.08828962,0.0001007,53.2167,108.6272,83.4358,276.6748,4.4205e-05,4.16e-06,0.0,0 STARLINK-3599,1 51814U 22017AY  24046.87696040  .00000416  00000-0  44205-4 0  9997,2 51814  53.2167 108.6272 0001007  83.4358 276.6748 15.08828962110438,6917.914,95.438,540.476,539.082,0.0
51814.0,STARLINK-3599,PAYLOAD,2024-02-16 11:21:16,15.08856945,0.0001176,53.2175,105.9534,90.6099,269.5028,-1.7197e-06,-3.15e-06,0.0,0 STARLINK-3599,1 51814U 22017AY  24047.47310553 -.00000315  00000-0 -17197-5 0  9997,2 51814  53.2175 105.9534 0001176  90.6099 269.5028 15.08856945110644,6917.829,95.436,540.507,538.88,0.0
51814.0,STARLINK-3599,PAYLOAD,2024-02-16 12:56:39,15.08857804,0.0001159,53.2175,105.6559,95.1445,264.9679,5.6203e-06,-1.98e-06,0.0,0 STARLINK-3599,1 51814U 22017AY  24047.53934376 -.00000198  00000-0  56203-5 0  9998,2 51814  53.2175 105.6559 0001159  95.1445 264.9679 15.08857804110538,6917.826,95.436,540.493,538.889,0.0
51814.0,STARLINK-3599,PAYLOAD,2024-02-17 03:15:09,15.08826748,0.0001388,53.2177,102.9823,75.7005,284.4142,0.00011527,1.546e-05,0.0,0 STARLINK-3599,1 51814U 22017AY  24048.13552129  .00001546  00000-0  11527-3 0  9992,2 51814  53.2177 102.9823 0001388  75.7005 284.4142 15.08826748110742,6917.921,95.438,540.746,538.826,0.0
51814.0,STARLINK-3599,PAYLOAD,2024-02-17 11:12:04,15.08836858,0.000135,53.2172,101.4912,85.261,274.8536,8.8307e-05,1.118e-05,0.0,0 STARLINK-3599,1 51814U 22017AY  24048.46671807  .00001118  00000-0  88307-4 0  9999,2 51814  53.2172 101.4912 0001350  85.2610 274.8536 15.08836858110795,6917.89,95.438,540.689,538.821,0.0
51814.0,STARLINK-3599,PAYLOAD,2024-02-17 20:44:23,15.08838988,0.0001355,53.2174,99.7067,85.5594,274.5553,0.00010655,1.408e-05,0.0,0 STARLINK-3599,1 51814U 22017AY  24048.86415675  .00001408  00000-0  10655-3 0  9994,2 51814  53.2174  99.7067 0001355  85.5594 274.5553 15.08838988110732,6917.883,95.438,540.686,538.811,0.0
51814.0,STARLINK-3599,PAYLOAD,2024-02-18 12:38:13,15.08855812,0.0001511,53.2181,96.7291,95.6793,264.4371,7.1549e-05,8.51e-06,0.0,0 STARLINK-3599,1 51814U 22017AY  24049.52654565  .00000851  00000-0  71549-4 0  9992,2 51814  53.2181  96.7291 0001511  95.6793 264.4371 15.08855812110835,6917.832,95.437,540.742,538.652,0.0
51814.0,STARLINK-3599,PAYLOAD,2024-02-18 20:35:09,15.08839627,0.0001371,53.2193,95.2461,104.605,255.5094,6.9353e-05,8.16e-06,0.0,0 STARLINK-3599,1 51814U 22017AY  24049.85775433  .00000816  00000-0  69353-4 0  9997,2 51814  53.2193  95.2461 0001371 104.6050 255.5094 15.08839627110886,6917.882,95.438,540.695,538.798,0.0
51814.0,STARLINK-3599,PAYLOAD,2024-02-19 02:56:42,15.0884181,0.0001631,53.2176,94.057,84.6611,275.4567,3.997e-05,3.48e-06,0.0,0 STARLINK-3599,1 51814U 22017AY  24050.12271620  .00000348  00000-0  39970-4 0  9990,2 51814  53.2176  94.0570 0001631  84.6611 275.4567 15.08841810111046,6917.875,95.437,540.868,538.612,0.0
51814.0,STARLINK-3599,PAYLOAD,2024-02-19 09:18:14,15.08844894,0.0001472,53.2173,92.8674,89.38,270.736,6.6097e-05,7.64e-06,0.0,0 STARLINK-3599,1 51814U 22017AY  24050.38767255  .00000764  00000-0  66097-4 0  9994,2 51814  53.2173  92.8674 0001472  89.3800 270.7360 15.08844894110963,6917.865,95.437,540.749,538.712,0.0
51814.0,STARLINK-3599,PAYLOAD,2024-02-20 09:09:02,15.08837926,0.0001514,53.218,88.4059,93.2498,266.8667,-1.562e-05,-5.37e-06,0.0,0 STARLINK-3599,1 51814U 22017AY  24051.38127877 -.00000537  00000-0 -15620-4 0  9991,2 51814  53.2180  88.4059 0001514  93.2498 266.8667 15.08837926111238,6917.887,95.438,540.799,538.704,0.0
51814.0,STARLINK-3599,PAYLOAD,2024-02-20 12:19:48,15.08844768,0.0001564,53.218,87.8114,94.7029,265.4141,-7.4184e-05,-1.469e-05,0.0,0 STARLINK-3599,1 51814U 22017AY  24051.51375607 -.00001469  00000-0 -74184-4 0  9997,2 51814  53.2180  87.8114 0001564  94.7029 265.4141 15.08844768111137,6917.866,95.437,540.813,538.649,0.0
51814.0,STARLINK-3599,PAYLOAD,2024-02-21 08:59:48,15.08844911,0.0001498,53.216,83.9454,90.2851,269.8313,8.648e-05,1.089e-05,0.0,0 STARLINK-3599,1 51814U 22017AY  24052.37487240  .00001089  00000-0  86480-4 0  9997,2 51814  53.2160  83.9454 0001498  90.2851 269.8313 15.08844911111385,6917.865,95.437,540.767,538.694,0.0
51814.0,STARLINK-3599,PAYLOAD,2024-02-21 18:32:08,15.0883907,0.0001453,53.2163,82.1626,86.5729,273.5429,-8.7794e-06,-4.28e-06,0.0,0 STARLINK-3599,1 51814U 22017AY  24052.77231779 -.00000428  00000-0 -87794-5 0  9993,2 51814  53.2163  82.1626 0001453  86.5729 273.5429 15.08839070111440,6917.883,95.438,540.753,538.743,0.0
51814.0,STARLINK-3599,PAYLOAD,2024-02-22 02:29:04,15.08829973,0.0001611,53.2179,80.6785,97.4506,262.667,-1.9888e-05,-6.04e-06,0.0,0 STARLINK-3599,1 51814U 22017AY  24053.10352766 -.00000604  00000-0 -19888-4 0  9995,2 51814  53.2179  80.6785 0001611  97.4506 262.6670 15.08829973111499,6917.911,95.438,540.891,538.662,0.0
51814.0,STARLINK-3599,PAYLOAD,2024-02-22 08:50:37,15.08828947,0.0001576,53.2179,79.4897,99.5535,260.5635,-1.527e-05,-5.31e-06,0.0,0 STARLINK-3599,1 51814U 22017AY  24053.36848928 -.00000531  00000-0 -15270-4 0  9993,2 51814  53.2179  79.4897 0001576  99.5535 260.5635 15.08828947111414,6917.914,95.438,540.869,538.689,0.0
51814.0,STARLINK-3599,PAYLOAD,2024-02-22 18:22:56,15.08837069,0.0001634,53.2182,77.7048,98.9353,261.1824,-3.0062e-05,-7.66e-06,0.0,0 STARLINK-3599,1 51814U 22017AY  24053.76592622 -.00000766  00000-0 -30062-4 0  9990,2 51814  53.2182  77.7048 0001634  98.9353 261.1824 15.08837069111594,6917.889,95.438,540.885,538.624,0.0
51814.0,STARLINK-3599,PAYLOAD,2024-02-23 08:41:23,15.0884862,0.0001577,53.2179,75.0284,100.886,259.2309,7.3751e-05,8.86e-06,0.0,0 STARLINK-3599,1 51814U 22017AY  24054.36207595  .00000886  00000-0  73751-4 0  9992,2 51814  53.2179  75.0284 0001577 100.8860 259.2309 15.08848620111686,6917.854,95.437,540.81,538.628,0.0
51814.0,STARLINK-3599,PAYLOAD,2024-02-23 18:13:42,15.08847447,0.0001407,53.2176,73.242,85.5734,274.5419,4.1611e-05,3.74e-06,0.0,0 STARLINK-3599,1 51814U 22017AY  24054.75951684  .00000374  00000-0  41611-4 0  9992,2 51814  53.2176  73.2420 0001407  85.5734 274.5419 15.08847447111628,6917.858,95.437,540.696,538.749,0.0
51814.0,STARLINK-3599,PAYLOAD,2024-02-24 08:32:11,15.08830055,0.0001585,53.2182,70.5625,81.1372,278.98,4.2919e-05,3.95e-06,0.0,0 STARLINK-3599,1 51814U 22017AY  24055.35569153  .00000395  00000-0  42919-4 0  9990,2 51814  53.2182  70.5625 0001585  81.1372 278.9800 15.08830055111831,6917.911,95.438,540.872,538.679,0.0
51814.0,STARLINK-3599,PAYLOAD,2024-02-24 18:04:30,15.08838206,0.0001465,53.2183,68.7819,84.7603,275.3557,5.8331e-05,6.4e-06,0.0,0 STARLINK-3599,1 51814U 22017AY  24055.75312698  .00000640  00000-0  58331-4 0  9992,2 51814  53.2183  68.7819 0001465  84.7603 275.3557 15.08838206111891,6917.886,95.438,540.764,538.737,0.0
51814.0,STARLINK-3599,PAYLOAD,2024-02-25 08:22:57,15.08850572,0.0001426,53.2176,66.1063,88.2874,271.8281,3.245e-05,2.29e-06,0.0,0 STARLINK-3599,1 51814U 22017AY  24056.34927917  .00000229  00000-0  32450-4 0  9991,2 51814  53.2176  66.1063 0001426  88.2874 271.8281 15.08850572111987,6917.848,95.437,540.7,538.727,0.0
